FENGYUN 1C DEB          
1 37590U 99025EKJ 17345.24773830  .00001045  00000-0  31314-3 0  9998
2 37590  98.9815 139.1967 0147514 248.2175 110.3259 14.39111866519997
